ONEWEB-0685             
1 54679U 22166AP  25167.70599114 -.00000057  00000+0 -16892-3 0  9997
2 54679  87.9260 316.8838 0001600 101.1953 258.9360 13.21826151123132
ONEWEB-0712             
1 54680U 22166AQ  25168.12261072  .00000160  00000+0  38362-3 0  9994
2 54680  87.9040 301.5254 0001828 117.6579 242.4737 13.16593092124485
ONEWEB-0714             
1 54681U 22166AR  25168.16647034 -.00000021  00000+0 -82549-4 0  9990
2 54681  87.9261 316.7842 0001645 100.6366 259.4953 13.21823980123783
ONEWEB-0532             
1 55140U 23004A   25167.47662340  .00000096  00000+0  21533-3 0  9998
2 55140  87.9067  78.6682 0002039  65.3173 294.8171 13.17650215119420
ONEWEB-0533             
1 55141U 23004B   25168.12893679 -.00000368  00000+0 -10574-2 0  9999
2 55141  87.8889  63.2662 0001653  78.9727 281.1588 13.12443972120176
ONEWEB-0541             
1 55142U 23004C   25168.17855004  .00000126  00000+0  32079-3 0  9990
2 55142  87.8841  93.8038 0002006  77.7666 282.3686 13.11415645118111
ONEWEB-0543             
1 55143U 23004D   25167.89478537  .00000070  00000+0  14463-3 0  9996
2 55143  87.9132  48.1157 0001724  90.6639 269.4691 13.18685807121551
ONEWEB-0544             
1 55144U 23004E   25168.64723191 -.00000069  00000+0 -20796-3 0  9996
2 55144  87.9132  47.9551 0001982  86.5025 273.6334 13.18685729121651
